TRANSPORTER-12 OBJECT BR
1 62672U 25009BR  26068.72617370  .00005568  00000+0  24628-3 0  9992
2 62672  97.4001 149.3786 0003861 342.5368  17.5735 15.22079833121252
FORGESTAR-1             
1 64546U 25135U   26068.85856760  .00010058  00000+0  43517-3 0  9994
2 64546  97.4560 185.1959 0001932 126.9955 233.1458 15.22632363 39784
